{
  "norad_id": 62669,
  "name": "JAY-D1",
  "history": [
    {
      "epoch": "2026-03-28T21:54:09.278496Z",
      "apogee_km": 502.8562395607978,
      "perigee_km": 498.0372413639043,
      "latitude_deg": -4.7038659142988135e-06,
      "longitude_deg": 13.64959738732874,
      "height_km": 503.97027294158477,
      "semi_major_axis_km": 6878.583740462351,
      "eccentricity": 0.00035029,
      "inclination_deg": 97.4058,
      "raan_deg": 168.5145,
      "arg_perigee_deg": 259.8072,
      "mean_anomaly_deg": 100.2769,
      "mean_motion_rev_day": 15.21788223
    },
    {
      "epoch": "2026-03-29T04:12:53.906688Z",
      "apogee_km": 502.8511701059533,
      "perigee_km": 498.01415991751765,
      "latitude_deg": 4.6311292137303746e-05,
      "longitude_deg": -81.03670087349413,
      "height_km": 504.0184488296575,
      "semi_major_axis_km": 6878.569665011735,
      "eccentricity": 0.0003516,
      "inclination_deg": 97.4058,
      "raan_deg": 168.7734,
      "arg_perigee_deg": 258.3439,
      "mean_anomaly_deg": 101.7403,
      "mean_motion_rev_day": 15.21792894
    }
  ]
}